{"type": "FeatureCollection", "features": [ {"type": "Feature", "properties": {"norad_id": 31074, "name": "FENGYUN 1C DEB", "group": "fengyun-1c-debris", "lat": -73.16020604144231, "lon": -63.00424867593493, "alt_km": 796.5751316772175, "timestamp": "2025-12-16T13:52:37.804069+00:00", "meta": {"OBJECT_NAME": "FENGYUN 1C DEB", "OBJECT_ID": "1999-025BFU", "EPOCH": "2025-12-12T16:50:43.827360", "MEAN_MOTION": 14.14238017, "ECCENTRICITY": 0.00878038, "INCLINATION": 98.9587, "RA_OF_ASC_NODE": 261.6986, "ARG_OF_PERICENTER": 266.0038, "MEAN_ANOMALY": 93.1094, "EPHEMERIS_TYPE": 0, "CLASSIFICATION_TYPE": "U", "NORAD_CAT_ID": 31074, "ELEMENT_SET_NO": 999, "REV_AT_EPOCH": 95579, "BSTAR": 0.0036102453, "MEAN_MOTION_DOT": 7.109e-05, "MEAN_MOTION_DDOT": 0}, "tle": {"line1": "1 31074U 99025BFU 25346.70189615  .00007109  00000+0  36102-2 0  9997", "line2": "2 31074  98.9587 261.6986 0087803 266.0038  93.1094 14.14238017955794"}}, "geometry": {"type": "Point", "coordinates": [-63.00424867593493, -73.16020604144231]}}, {"type": "Feature", "properties": {"norad_id": 31078, "name": "FENGYUN 1C DEB", "group": "fengyun-1c-debris", "lat": 2.1913585369121917, "lon": 50.69609658130898, "alt_km": 880.5937793936946, "timestamp": "2025-12-16T13:52:37.804083+00:00", "meta": {"OBJECT_NAME": "FENGYUN 1C DEB", "OBJECT_ID": "1999-025BFY", "EPOCH": "2025-12-15T10:54:33.357600", "MEAN_MOTION": 14.22084734, "ECCENTRICITY": 0.0117132, "INCLINATION": 98.8675, "RA_OF_ASC_NODE": 49.9086, "ARG_OF_PERICENTER": 141.0899, "MEAN_ANOMALY": 232.8229, "EPHEMERIS_TYPE": 0, "CLASSIFICATION_TYPE": "U", "NORAD_CAT_ID": 31078, "ELEMENT_SET_NO": 999, "REV_AT_EPOCH": 96931, "BSTAR": 0.00048192939, "MEAN_MOTION_DOT": 1.1e-05, "MEAN_MOTION_DDOT": 0}, "tle": {"line1": "1 31078U 99025BFY 25349.45455275  .00001100  00000+0  48193-3 0  9993", "line2": "2 31078  98.8675  49.9086 0117132 141.0899 232.8229 14.22084734969318"}}, "geometry": {"type": "Point", "coordinates": [50.69609658130898, 2.1913585369121917]}}, {"type": "Feature", "properties": {"norad_id": 31081, "name": "FENGYUN 1C DEB", "group": "fengyun-1c-debris", "lat": -76.25485234089307, "lon": 46.02683606514156, "alt_km": 862.3483641164294, "timestamp": "2025-12-16T13:52:37.804093+00:00", "meta": {"OBJECT_NAME": "FENGYUN 1C DEB", "OBJECT_ID": "1999-025BGB", "EPOCH": "2025-12-15T07:36:33.234912", "MEAN_MOTION": 14.06299415, "ECCENTRICITY": 0.00474465, "INCLINATION": 98.7705, "RA_OF_ASC_NODE": 5.6721, "ARG_OF_PERICENTER": 223.5944, "MEAN_ANOMALY": 155.2552, "EPHEMERIS_TYPE": 0, "CLASSIFICATION_TYPE": "U", "NORAD_CAT_ID": 31081, "ELEMENT_SET_NO": 999, "REV_AT_EPOCH": 96497, "BSTAR": 6.007216e-06, "MEAN_MOTION_DOT": -3.3e-07, "MEAN_MOTION_DDOT": 0}, "tle": {"line1": "1 31081U 99025BGB 25349.31705133 -.00000033  00000+0  60072-5 0  9990", "line2": "2 31081  98.7705   5.6721 0047446 223.5944 155.2552 14.06299415964977"}}, "geometry": {"type": "Point", "coordinates": [46.02683606514156, -76.25485234089307]}}, {"type": "Feature", "properties": {"norad_id": 31083, "name": "FENGYUN 1C DEB", "group": "fengyun-1c-debris", "lat": 20.1370014457383, "lon": 105.0026346621539, "alt_km": 685.1052017280281, "timestamp": "2025-12-16T13:52:37.804105+00:00", "meta": {"OBJECT_NAME": "FENGYUN 1C DEB", "OBJECT_ID": "1999-025BGD", "EPOCH": "2025-12-15T20:18:12.898368", "MEAN_MOTION": 14.62116852, "ECCENTRICITY": 0.00314767, "INCLINATION": 98.6462, "RA_OF_ASC_NODE": 107.4353, "ARG_OF_PERICENTER": 295.7369, "MEAN_ANOMALY": 192.4402, "EPHEMERIS_TYPE": 0, "CLASSIFICATION_TYPE": "U", "NORAD_CAT_ID": 31083, "ELEMENT_SET_NO": 999, "REV_AT_EPOCH": 97755, "BSTAR": 0.0017697068, "MEAN_MOTION_DOT": 8.915e-05, "MEAN_MOTION_DDOT": 0}, "tle": {"line1": "1 31083U 99025BGD 25349.84598262  .00008915  00000+0  17697-2 0  9991", "line2": "2 31083  98.6462 107.4353 0031476 295.7369 192.4402 14.62116852977558"}}, "geometry": {"type": "Point", "coordinates": [105.0026346621539, 20.1370014457383]}}, {"type": "Feature", "properties": {"norad_id": 31085, "name": "FENGYUN 1C DEB", "group": "fengyun-1c-debris", "lat": 64.70935195300171, "lon": 171.92861917409843, "alt_km": 752.0769637577405, "timestamp": "2025-12-16T13:52:37.804115+00:00", "meta": {"OBJECT_NAME": "FENGYUN 1C DEB", "OBJECT_ID": "1999-025BGF", "EPOCH": "2025-12-15T12:31:20.802720", "MEAN_MOTION": 14.30310848, "ECCENTRICITY": 0.00871984, "INCLINATION": 98.984, "RA_OF_ASC_NODE": 190.3995, "ARG_OF_PERICENTER": 10.0084, "MEAN_ANOMALY": 18.7387, "EPHEMERIS_TYPE": 0, "CLASSIFICATION_TYPE": "U", "NORAD_CAT_ID": 31085, "ELEMENT_SET_NO": 999, "REV_AT_EPOCH": 97756, "BSTAR": 0.00010704056, "MEAN_MOTION_DOT": 2.42e-06, "MEAN_MOTION_DDOT": 0}, "tle": {"line1": "1 31085U 99025BGF 25349.52176855  .00000242  00000+0  10704-3 0  9996", "line2": "2 31085  98.9840 190.3995 0087198  10.0084  18.7387 14.30310848977569"}}, "geometry": {"type": "Point", "coordinates": [171.92861917409843, 64.70935195300171]}}, {"type": "Feature", "properties": {"norad_id": 31087, "name": "FENGYUN 1C DEB", "group": "fengyun-1c-debris", "lat": -73.55367324581314, "lon": 162.04980969716723, "alt_km": 587.3963260885466, "timestamp": "2025-12-16T13:52:37.804125+00:00", "meta": {"OBJECT_NAME": "FENGYUN 1C DEB", "OBJECT_ID": "1999-025BGH", "EPOCH": "2025-12-15T00:39:24.075072", "MEAN_MOTION": 14.60335289, "ECCENTRICITY": 0.01718728, "INCLINATION": 98.1026, "RA_OF_ASC_NODE": 9.3881, "ARG_OF_PERICENTER": 283.7251, "MEAN_ANOMALY": 104.3201, "EPHEMERIS_TYPE": 0, "CLASSIFICATION_TYPE": "U", "NORAD_CAT_ID": 31087, "ELEMENT_SET_NO": 999, "REV_AT_EPOCH": 98803, "BSTAR": 0.00058557486, "MEAN_MOTION_DOT": 3.429e-05, "MEAN_MOTION_DDOT": 0}, "tle": {"line1": "1 31087U 99025BGH 25349.02736198  .00003429  00000+0  58557-3 0  9993", "line2": "2 31087  98.1026   9.3881 0171872 283.7251 104.3201 14.60335289988030"}}, "geometry": {"type": "Point", "coordinates": [162.04980969716723, -73.55367324581314]}}, {"type": "Feature", "properties": {"norad_id": 31088, "name": "FENGYUN 1C DEB", "group": "fengyun-1c-debris", "lat": 79.22941707260834, "lon": -9.624362930047072, "alt_km": 771.6373462619904, "timestamp": "2025-12-16T13:52:37.804135+00:00", "meta": {"OBJECT_NAME": "FENGYUN 1C DEB", "OBJECT_ID": "1999-025BGJ", "EPOCH": "2025-12-13T23:52:00.054048", "MEAN_MOTION": 14.28711885, "ECCENTRICITY": 0.00284722, "INCLINATION": 99.4118, "RA_OF_ASC_NODE": 48.2749, "ARG_OF_PERICENTER": 57.9563, "MEAN_ANOMALY": 64.6257, "EPHEMERIS_TYPE": 0, "CLASSIFICATION_TYPE": "U", "NORAD_CAT_ID": 31088, "ELEMENT_SET_NO": 999, "REV_AT_EPOCH": 96567, "BSTAR": 0.0018888091, "MEAN_MOTION_DOT": 4.725e-05, "MEAN_MOTION_DDOT": 0}, "tle": {"line1": "1 31088U 99025BGJ 25347.99444507  .00004725  00000+0  18888-2 0  9990", "line2": "2 31088  99.4118  48.2749 0028472  57.9563  64.6257 14.28711885965674"}}, "geometry": {"type": "Point", "coordinates": [-9.624362930047072, 79.22941707260834]}}, {"type": "Feature", "properties": {"norad_id": 31089, "name": "FENGYUN 1C DEB", "group": "fengyun-1c-debris", "lat": -16.224267740083082, "lon": 135.10983698024523, "alt_km": 1057.5584378364329, "timestamp": "2025-12-16T13:52:37.804146+00:00", "meta": {"OBJECT_NAME": "FENGYUN 1C DEB", "OBJECT_ID": "1999-025BGK", "EPOCH": "2025-12-15T15:35:07.223424", "MEAN_MOTION": 13.88330601, "ECCENTRICITY": 0.02060874, "INCLINATION": 98.9495, "RA_OF_ASC_NODE": 131.5901, "ARG_OF_PERICENTER": 203.736, "MEAN_ANOMALY": 178.7454, "EPHEMERIS_TYPE": 0, "CLASSIFICATION_TYPE": "U", "NORAD_CAT_ID": 31089, "ELEMENT_SET_NO": 999, "REV_AT_EPOCH": 68100, "BSTAR": 0.0007874884, "MEAN_MOTION_DOT": 1.075e-05, "MEAN_MOTION_DDOT": 0}, "tle": {"line1": "1 31089U 99025BGK 25349.64938916  .00001075  00000+0  78749-3 0  9995", "line2": "2 31089  98.9495 131.5901 0206087 203.7360 178.7454 13.88330601681005"}}, "geometry": {"type": "Point", "coordinates": [135.10983698024523, -16.224267740083082]}}, {"type": "Feature", "properties": {"norad_id": 31090, "name": "FENGYUN 1C DEB", "group": "fengyun-1c-debris", "lat": -78.65225915083224, "lon": -136.58676490931606, "alt_km": 501.8467360399418, "timestamp": "2025-12-16T13:52:37.804155+00:00", "meta": {"OBJECT_NAME": "FENGYUN 1C DEB", "OBJECT_ID": "1999-025BGL", "EPOCH": "2025-12-15T19:30:53.150688", "MEAN_MOTION": 15.33761099, "ECCENTRICITY": 0.00547516, "INCLINATION": 98.9834, "RA_OF_ASC_NODE": 94.51, "ARG_OF_PERICENTER": 121.8977, "MEAN_ANOMALY": 238.7604, "EPHEMERIS_TYPE": 0, "CLASSIFICATION_TYPE": "U", "NORAD_CAT_ID": 31090, "ELEMENT_SET_NO": 999, "REV_AT_EPOCH": 885, "BSTAR": 0.0011773869, "MEAN_MOTION_DOT": 0.00040403, "MEAN_MOTION_DDOT": 0}, "tle": {"line1": "1 31090U 99025BGL 25349.81311517  .00040403  00000+0  11774-2 0  9990", "line2": "2 31090  98.9834  94.5100 0054751 121.8977 238.7604 15.33761099  8857"}}, "geometry": {"type": "Point", "coordinates": [-136.58676490931606, -78.65225915083224]}}, {"type": "Feature", "properties": {"norad_id": 31091, "name": "FENGYUN 1C DEB", "group": "fengyun-1c-debris", "lat": 60.89959426871606, "lon": 164.35606965945385, "alt_km": 1251.1050984528601, "timestamp": "2025-12-16T13:52:37.804167+00:00", "meta": {"OBJECT_NAME": "FENGYUN 1C DEB", "OBJECT_ID": "1999-025BGM", "EPOCH": "2025-12-15T05:22:33.413376", "MEAN_MOTION": 13.54150685, "ECCENTRICITY": 0.02906276, "INCLINATION": 99.225, "RA_OF_ASC_NODE": 326.1152, "ARG_OF_PERICENTER": 322.7097, "MEAN_ANOMALY": 35.4174, "EPHEMERIS_TYPE": 0, "CLASSIFICATION_TYPE": "U", "NORAD_CAT_ID": 31091, "ELEMENT_SET_NO": 999, "REV_AT_EPOCH": 61673, "BSTAR": 0.00088413232, "MEAN_MOTION_DOT": 7.43e-06, "MEAN_MOTION_DDOT": 0}, "tle": {"line1": "1 31091U 99025BGM 25349.22399784  .00000743  00000+0  88413-3 0  9996", "line2": "2 31091  99.2250 326.1152 0290627 322.7097  35.4174 13.54150685616734"}}, "geometry": {"type": "Point", "coordinates": [164.35606965945385, 60.89959426871606]}}]}